ONEWEB-0354             
1 49217U 21083AH  25246.24208925  .00000066  00000+0  13126-3 0  9995
2 49217  87.9295 331.6288 0001996 107.1871 252.9481 13.20773593198937
ONEWEB-0355             
1 49218U 21083AJ  25246.16913967 -.00001526  00000+0 -42136-2 0  9992
2 49218  87.9022  17.2782 0001535 109.8605 250.2690 13.13475049193222
ONEWEB-0357             
1 49219U 21083AK  25246.23892984  .00000052  00000+0  95463-4 0  9990
2 49219  87.9288 331.6304 0001742 102.2083 257.9246 13.20774322198935
ONEWEB-0332             
1 49279U 21090A   25246.25458699  .00000174  00000+0  43577-3 0  9990
2 49279  87.9092 346.8407 0001643  92.9223 267.2095 13.14502418189885
ONEWEB-0347             
1 49280U 21090B   25245.77492091 -.00000108  00000+0 -29722-3 0  9997
2 49280  87.9293 331.7352 0001887  87.8519 272.2830 13.20770632193108
ONEWEB-0349             
1 49281U 21090C   25246.18526835  .00000019  00000+0  14826-4 0  9997
2 49281  87.9283 331.6553 0001795 101.2134 258.9202 13.20773732191940
ONEWEB-0353             
1 49282U 21090D   25246.24666160  .00000040  00000+0  74259-4 0  9991
2 49282  87.9085 346.8283 0001706  91.7428 268.3897 13.14503548189884
ONEWEB-0356             
1 49283U 21090E   25245.95642262  .00000047  00000+0  83205-4 0  9994
2 49283  87.9286 331.6925 0002718  90.9898 269.1546 13.20770126191911
ONEWEB-0358             
1 49284U 21090F   25245.98641108  .00000043  00000+0  74276-4 0  9990
2 49284  87.9297 331.6787 0002002 100.9175 259.2184 13.20770042192642
ONEWEB-0359             
1 49285U 21090G   25245.98325672  .00000090  00000+0  18846-3 0  9998
2 49285  87.9287 331.6877 0002064 109.1306 251.0051 13.20773090192624
ONEWEB-0360             
1 49286U 21090H   25245.97380264  .00000099  00000+0  21246-3 0  9993
2 49286  87.9286 331.6984 0001902 104.5315 255.6030 13.20771659191931
ONEWEB-0361             
1 49287U 21090J   25246.18211949  .00000135  00000+0  30102-3 0  9993
2 49287  87.9289 331.6526 0002030  97.1054 263.0310 13.20773534192419
ONEWEB-0362             
1 49288U 21090K   25246.05901703 -.00000183  00000+0 -48898-3 0  9990
2 49288  87.9280   2.0779 0001623 103.5963 256.5351 13.19726045189048
ONEWEB-0363             
1 49289U 21090L   25246.19790600  .00000130  00000+0  28748-3 0  9990
2 49289  87.9293 331.6453 0002295  96.9797 263.1598 13.20773662192421
ONEWEB-0364             
1 49290U 21090M   25246.23579408  .00000005  00000+0 -20033-4 0  9990
2 49290  87.9282 331.6646 0001990  96.6557 263.4803 13.20772102193563
ONEWEB-0365             
1 49291U 21090N   25246.06849927  .00000045  00000+0  80296-4 0  9998
2 49291  87.9280   2.0310 0001668  97.6936 262.4387 13.19724157188557
