[{"OBJECT_NAME":"ONEWEB-0354","OBJECT_ID":"2021-083AH","EPOCH":"2025-09-03T05:48:36.511200","MEAN_MOTION":13.20773593,"ECCENTRICITY":0.00019963,"INCLINATION":87.9295,"RA_OF_ASC_NODE":331.6288,"ARG_OF_PERICENTER":107.1871,"MEAN_ANOMALY":252.9481,"EPHEMERIS_TYPE":0,"CLASSIFICATION_TYPE":"U","NORAD_CAT_ID":49217,"ELEMENT_SET_NO":999,"REV_AT_EPOCH":19893,"BSTAR":0.0001312552,"MEAN_MOTION_DOT":6.6e-7,"MEAN_MOTION_DDOT":0},{"OBJECT_NAME":"ONEWEB-0355","OBJECT_ID":"2021-083AJ","EPOCH":"2025-09-03T04:03:33.667488","MEAN_MOTION":13.13475049,"ECCENTRICITY":0.00015352,"INCLINATION":87.9022,"RA_OF_ASC_NODE":17.2782,"ARG_OF_PERICENTER":109.8605,"MEAN_ANOMALY":250.269,"EPHEMERIS_TYPE":0,"CLASSIFICATION_TYPE":"U","NORAD_CAT_ID":49218,"ELEMENT_SET_NO":999,"REV_AT_EPOCH":19322,"BSTAR":-0.0042136282,"MEAN_MOTION_DOT":-1.526e-5,"MEAN_MOTION_DDOT":0},{"OBJECT_NAME":"ONEWEB-0357","OBJECT_ID":"2021-083AK","EPOCH":"2025-09-03T05:44:03.538176","MEAN_MOTION":13.20774322,"ECCENTRICITY":0.00017424,"INCLINATION":87.9288,"RA_OF_ASC_NODE":331.6304,"ARG_OF_PERICENTER":102.2083,"MEAN_ANOMALY":257.9246,"EPHEMERIS_TYPE":0,"CLASSIFICATION_TYPE":"U","NORAD_CAT_ID":49219,"ELEMENT_SET_NO":999,"REV_AT_EPOCH":19893,"BSTAR":9.5463074e-5,"MEAN_MOTION_DOT":5.2e-7,"MEAN_MOTION_DDOT":0},{"OBJECT_NAME":"ONEWEB-0332","OBJECT_ID":"2021-090A","EPOCH":"2025-09-03T06:06:36.315936","MEAN_MOTION":13.14502418,"ECCENTRICITY":0.00016437,"INCLINATION":87.9092,"RA_OF_ASC_NODE":346.8407,"ARG_OF_PERICENTER":92.9223,"MEAN_ANOMALY":267.2095,"EPHEMERIS_TYPE":0,"CLASSIFICATION_TYPE":"U","NORAD_CAT_ID":49279,"ELEMENT_SET_NO":999,"REV_AT_EPOCH":18988,"BSTAR":0.00043577258,"MEAN_MOTION_DOT":1.74e-6,"MEAN_MOTION_DDOT":0},{"OBJECT_NAME":"ONEWEB-0347","OBJECT_ID":"2021-090B","EPOCH":"2025-09-02T18:35:53.166624","MEAN_MOTION":13.20770632,"ECCENTRICITY":0.00018875,"INCLINATION":87.9293,"RA_OF_ASC_NODE":331.7352,"ARG_OF_PERICENTER":87.8519,"MEAN_ANOMALY":272.283,"EPHEMERIS_TYPE":0,"CLASSIFICATION_TYPE":"U","NORAD_CAT_ID":49280,"ELEMENT_SET_NO":999,"REV_AT_EPOCH":19310,"BSTAR":-0.00029722284,"MEAN_MOTION_DOT":-1.08e-6,"MEAN_MOTION_DDOT":0},{"OBJECT_NAME":"ONEWEB-0349","OBJECT_ID":"2021-090C","EPOCH":"2025-09-03T04:26:47.185440","MEAN_MOTION":13.20773732,"ECCENTRICITY":0.00017957,"INCLINATION":87.9283,"RA_OF_ASC_NODE":331.6553,"ARG_OF_PERICENTER":101.2134,"MEAN_ANOMALY":258.9202,"EPHEMERIS_TYPE":0,"CLASSIFICATION_TYPE":"U","NORAD_CAT_ID":49281,"ELEMENT_SET_NO":999,"REV_AT_EPOCH":19194,"BSTAR":1.4826121e-5,"MEAN_MOTION_DOT":1.9e-7,"MEAN_MOTION_DDOT":0},{"OBJECT_NAME":"ONEWEB-0353","OBJECT_ID":"2021-090D","EPOCH":"2025-09-03T05:55:11.562240","MEAN_MOTION":13.14503548,"ECCENTRICITY":0.00017062,"INCLINATION":87.9085,"RA_OF_ASC_NODE":346.8283,"ARG_OF_PERICENTER":91.7428,"MEAN_ANOMALY":268.3897,"EPHEMERIS_TYPE":0,"CLASSIFICATION_TYPE":"U","NORAD_CAT_ID":49282,"ELEMENT_SET_NO":999,"REV_AT_EPOCH":18988,"BSTAR":7.4258854e-5,"MEAN_MOTION_DOT":4.0e-7,"MEAN_MOTION_DDOT":0},{"OBJECT_NAME":"ONEWEB-0356","OBJECT_ID":"2021-090E","EPOCH":"2025-09-02T22:57:14.914368","MEAN_MOTION":13.20770126,"ECCENTRICITY":0.00027188,"INCLINATION":87.9286,"RA_OF_ASC_NODE":331.6925,"ARG_OF_PERICENTER":90.9898,"MEAN_ANOMALY":269.1546,"EPHEMERIS_TYPE":0,"CLASSIFICATION_TYPE":"U","NORAD_CAT_ID":49283,"ELEMENT_SET_NO":999,"REV_AT_EPOCH":19191,"BSTAR":8.3204832e-5,"MEAN_MOTION_DOT":4.7e-7,"MEAN_MOTION_DDOT":0},{"OBJECT_NAME":"ONEWEB-0358","OBJECT_ID":"2021-090F","EPOCH":"2025-09-02T23:40:25.917312","MEAN_MOTION":13.20770042,"ECCENTRICITY":0.00020027,"INCLINATION":87.9297,"RA_OF_ASC_NODE":331.6787,"ARG_OF_PERICENTER":100.9175,"MEAN_ANOMALY":259.2184,"EPHEMERIS_TYPE":0,"CLASSIFICATION_TYPE":"U","NORAD_CAT_ID":49284,"ELEMENT_SET_NO":999,"REV_AT_EPOCH":19264,"BSTAR":7.427556e-5,"MEAN_MOTION_DOT":4.3e-7,"MEAN_MOTION_DDOT":0},{"OBJECT_NAME":"ONEWEB-0359","OBJECT_ID":"2021-090G","EPOCH":"2025-09-02T23:35:53.380608","MEAN_MOTION":13.2077309,"ECCENTRICITY":0.00020649,"INCLINATION":87.9287,"RA_OF_ASC_NODE":331.6877,"ARG_OF_PERICENTER":109.1306,"MEAN_ANOMALY":251.0051,"EPHEMERIS_TYPE":0,"CLASSIFICATION_TYPE":"U","NORAD_CAT_ID":49285,"ELEMENT_SET_NO":999,"REV_AT_EPOCH":19262,"BSTAR":0.00018845781,"MEAN_MOTION_DOT":9.0e-7,"MEAN_MOTION_DDOT":0},{"OBJECT_NAME":"ONEWEB-0360","OBJECT_ID":"2021-090H","EPOCH":"2025-09-02T23:22:16.548096","MEAN_MOTION":13.20771659,"ECCENTRICITY":0.00019027,"INCLINATION":87.9286,"RA_OF_ASC_NODE":331.6984,"ARG_OF_PERICENTER":104.5315,"MEAN_ANOMALY":255.603,"EPHEMERIS_TYPE":0,"CLASSIFICATION_TYPE":"U","NORAD_CAT_ID":49286,"ELEMENT_SET_NO":999,"REV_AT_EPOCH":19193,"BSTAR":0.000212457,"MEAN_MOTION_DOT":9.9e-7,"MEAN_MOTION_DDOT":0},{"OBJECT_NAME":"ONEWEB-0361","OBJECT_ID":"2021-090J","EPOCH":"2025-09-03T04:22:15.123936","MEAN_MOTION":13.20773534,"ECCENTRICITY":0.00020309,"INCLINATION":87.9289,"RA_OF_ASC_NODE":331.6526,"ARG_OF_PERICENTER":97.1054,"MEAN_ANOMALY":263.031,"EPHEMERIS_TYPE":0,"CLASSIFICATION_TYPE":"U","NORAD_CAT_ID":49287,"ELEMENT_SET_NO":999,"REV_AT_EPOCH":19241,"BSTAR":0.00030102211,"MEAN_MOTION_DOT":1.35e-6,"MEAN_MOTION_DDOT":0},{"OBJECT_NAME":"ONEWEB-0362","OBJECT_ID":"2021-090K","EPOCH":"2025-09-03T01:24:59.071392","MEAN_MOTION":13.19726045,"ECCENTRICITY":0.00016238,"INCLINATION":87.928,"RA_OF_ASC_NODE":2.0779,"ARG_OF_PERICENTER":103.5963,"MEAN_ANOMALY":256.5351,"EPHEMERIS_TYPE":0,"CLASSIFICATION_TYPE":"U","NORAD_CAT_ID":49288,"ELEMENT_SET_NO":999,"REV_AT_EPOCH":18904,"BSTAR":-0.00048898243,"MEAN_MOTION_DOT":-1.83e-6,"MEAN_MOTION_DDOT":0},{"OBJECT_NAME":"ONEWEB-0363","OBJECT_ID":"2021-090L","EPOCH":"2025-09-03T04:44:59.078400","MEAN_MOTION":13.20773662,"ECCENTRICITY":0.00022951,"INCLINATION":87.9293,"RA_OF_ASC_NODE":331.6453,"ARG_OF_PERICENTER":96.9797,"MEAN_ANOMALY":263.1598,"EPHEMERIS_TYPE":0,"CLASSIFICATION_TYPE":"U","NORAD_CAT_ID":49289,"ELEMENT_SET_NO":999,"REV_AT_EPOCH":19242,"BSTAR":0.00028748082,"MEAN_MOTION_DOT":1.3e-6,"MEAN_MOTION_DDOT":0},{"OBJECT_NAME":"ONEWEB-0364","OBJECT_ID":"2021-090M","EPOCH":"2025-09-03T05:39:32.608512","MEAN_MOTION":13.20772102,"ECCENTRICITY":0.00019903,"INCLINATION":87.9282,"RA_OF_ASC_NODE":331.6646,"ARG_OF_PERICENTER":96.6557,"MEAN_ANOMALY":263.4803,"EPHEMERIS_TYPE":0,"CLASSIFICATION_TYPE":"U","NORAD_CAT_ID":49290,"ELEMENT_SET_NO":999,"REV_AT_EPOCH":19356,"BSTAR":-2.0032543e-5,"MEAN_MOTION_DOT":5.0e-8,"MEAN_MOTION_DDOT":0},{"OBJECT_NAME":"ONEWEB-0365","OBJECT_ID":"2021-090N","EPOCH":"2025-09-03T01:38:38.336928","MEAN_MOTION":13.19724157,"ECCENTRICITY":0.00016685,"INCLINATION":87.928,"RA_OF_ASC_NODE":2.031,"ARG_OF_PERICENTER":97.6936,"MEAN_ANOMALY":262.4387,"EPHEMERIS_TYPE":0,"CLASSIFICATION_TYPE":"U","NORAD_CAT_ID":49291,"ELEMENT_SET_NO":999,"REV_AT_EPOCH":18855,"BSTAR":8.0295932e-5,"MEAN_MOTION_DOT":4.5e-7,"MEAN_MOTION_DDOT":0}]
